[{"OBJECT_NAME":"STARLINK-30360","OBJECT_ID":"2023-134F","EPOCH":"2026-03-09T10:15:23.943744","MEAN_MOTION":15.26742217,"ECCENTRICITY":0.00011889,"INCLINATION":42.998,"RA_OF_ASC_NODE":196.2238,"ARG_OF_PERICENTER":219.3661,"MEAN_ANOMALY":140.7104,"EPHEMERIS_TYPE":0,"CLASSIFICATION_TYPE":"U","NORAD_CAT_ID":57776,"ELEMENT_SET_NO":999,"REV_AT_EPOCH":13946,"BSTAR":9.408504e-6,"MEAN_MOTION_DOT":-7.0e-8,"MEAN_MOTION_DDOT":0},{"OBJECT_NAME":"KIRARI (OICETS)","OBJECT_ID":"2005-031A","EPOCH":"2026-03-09T15:02:18.043872","MEAN_MOTION":15.22934858,"ECCENTRICITY":0.0019783,"INCLINATION":98.0768,"RA_OF_ASC_NODE":316.1697,"ARG_OF_PERICENTER":5.9068,"MEAN_ANOMALY":354.2396,"EPHEMERIS_TYPE":0,"CLASSIFICATION_TYPE":"U","NORAD_CAT_ID":28809,"ELEMENT_SET_NO":999,"REV_AT_EPOCH":12344,"BSTAR":0.00027776,"MEAN_MOTION_DOT":6.472e-5,"MEAN_MOTION_DDOT":0}]
